{
  "norad_id": 39088,
  "name": "SAPPHIRE",
  "history": [
    {
      "epoch": "2026-03-28T18:43:10.878528Z",
      "apogee_km": 783.0575563965567,
      "perigee_km": 765.6359656005425,
      "latitude_deg": -3.5080682134985625e-05,
      "longitude_deg": 162.15925180003703,
      "height_km": 782.3138575172292,
      "semi_major_axis_km": 7152.483760998549,
      "eccentricity": 0.00121787,
      "inclination_deg": 98.4239,
      "raan_deg": 269.1501,
      "arg_perigee_deg": 125.3799,
      "mean_anomaly_deg": 234.8526,
      "mean_motion_rev_day": 14.35216575
    },
    {
      "epoch": "2026-03-29T01:24:44.770464Z",
      "apogee_km": 783.0616133947005,
      "perigee_km": 765.6310115621909,
      "latitude_deg": 5.14063963377812e-05,
      "longitude_deg": 61.76536122044687,
      "height_km": 782.2214983921413,
      "semi_major_axis_km": 7152.483312478445,
      "eccentricity": 0.0012185,
      "inclination_deg": 98.4239,
      "raan_deg": 269.4223,
      "arg_perigee_deg": 124.6239,
      "mean_anomaly_deg": 235.6098,
      "mean_motion_rev_day": 14.3521671
    },
    {
      "epoch": "2026-03-30T00:50:13.367616Z",
      "apogee_km": 783.0820663294389,
      "perigee_km": 765.6071232969907,
      "latitude_deg": -3.4966750363621624e-05,
      "longitude_deg": 70.38690510005257,
      "height_km": 781.8885758814141,
      "semi_major_axis_km": 7152.4815948132145,
      "eccentricity": 0.0012216,
      "inclination_deg": 98.4239,
      "raan_deg": 270.375,
      "arg_perigee_deg": 121.9351,
      "mean_anomaly_deg": 238.3024,
      "mean_motion_rev_day": 14.35217227
    },
    {
      "epoch": "2026-03-30T05:51:23.778144Z",
      "apogee_km": 783.0805526857321,
      "perigee_km": 765.6081850985474,
      "latitude_deg": 4.816445279399808e-05,
      "longitude_deg": -4.908430045598748,
      "height_km": 781.8128891468863,
      "semi_major_axis_km": 7152.4813688921395,
      "eccentricity": 0.00122142,
      "inclination_deg": 98.4239,
      "raan_deg": 270.5792,
      "arg_perigee_deg": 121.3607,
      "mean_anomaly_deg": 238.8776,
      "mean_motion_rev_day": 14.35217295
    },
    {
      "epoch": "2026-03-30T10:52:34.184352Z",
      "apogee_km": 783.0822676511698,
      "perigee_km": 765.6057525015285,
      "latitude_deg": 5.5544097332098085e-06,
      "longitude_deg": -80.20382861961029,
      "height_km": 781.7391801847823,
      "semi_major_axis_km": 7152.481010076349,
      "eccentricity": 0.00122171,
      "inclination_deg": 98.4239,
      "raan_deg": 270.7833,
      "arg_perigee_deg": 120.7924,
      "mean_anomaly_deg": 239.4466,
      "mean_motion_rev_day": 14.35217403
    },
    {
      "epoch": "2026-03-30T17:34:08.056416Z",
      "apogee_km": 783.085624373758,
      "perigee_km": 765.6013857790977,
      "latitude_deg": 3.807742432868843e-06,
      "longitude_deg": 179.40237720293976,
      "height_km": 781.6391522424705,
      "semi_major_axis_km": 7152.480505076427,
      "eccentricity": 0.00122225,
      "inclination_deg": 98.4239,
      "raan_deg": 271.0555,
      "arg_perigee_deg": 120.0232,
      "mean_anomaly_deg": 240.2168,
      "mean_motion_rev_day": 14.35217555
    },
    {
      "epoch": "2026-03-31T18:40:00.059808Z",
      "apogee_km": 783.0984540935842,
      "perigee_km": 765.5848948113198,
      "latitude_deg": -1.3918033195166321e-05,
      "longitude_deg": 162.9257712690072,
      "height_km": 781.2629035210286,
      "semi_major_axis_km": 7152.478674452452,
      "eccentricity": 0.0012243,
      "inclination_deg": 98.424,
      "raan_deg": 272.0763,
      "arg_perigee_deg": 117.1853,
      "mean_anomaly_deg": 243.0582,
      "mean_motion_rev_day": 14.35218106
    },
    {
      "epoch": "2026-04-01T18:05:28.575744Z",
      "apogee_km": 783.1153672959936,
      "perigee_km": 765.5660479925173,
      "latitude_deg": -7.745151026407478e-06,
      "longitude_deg": 171.547741565479,
      "height_km": 780.901977006301,
      "semi_major_axis_km": 7152.477707644255,
      "eccentricity": 0.0012268,
      "inclination_deg": 98.424,
      "raan_deg": 273.0291,
      "arg_perigee_deg": 114.5205,
      "mean_anomaly_deg": 245.7261,
      "mean_motion_rev_day": 14.35218397
    },
    {
      "epoch": "2026-04-02T10:49:23.185920Z",
      "apogee_km": 783.1205971150412,
      "perigee_km": 765.5564060752831,
      "latitude_deg": 3.463298813370444e-05,
      "longitude_deg": -79.43645855288807,
      "height_km": 780.6365087367482,
      "semi_major_axis_km": 7152.475501595161,
      "eccentricity": 0.00122784,
      "inclination_deg": 98.424,
      "raan_deg": 273.7096,
      "arg_perigee_deg": 112.6287,
      "mean_anomaly_deg": 247.6199,
      "mean_motion_rev_day": 14.35219061
    },
    {
      "epoch": "2026-04-02T22:32:07.394208Z",
      "apogee_km": 783.1285614288727,
      "perigee_km": 765.545777227896,
      "latitude_deg": -8.215214180051168e-06,
      "longitude_deg": 104.87474064861368,
      "height_km": 780.4508492926917,
      "semi_major_axis_km": 7152.474169328384,
      "eccentricity": 0.00122914,
      "inclination_deg": 98.424,
      "raan_deg": 274.186,
      "arg_perigee_deg": 111.3109,
      "mean_anomaly_deg": 248.939,
      "mean_motion_rev_day": 14.35219462
    },
    {
      "epoch": "2026-04-03T11:55:15.063168Z",
      "apogee_km": 783.1352582657037,
      "perigee_km": 765.5361700042122,
      "latitude_deg": 7.516185258055456e-05,
      "longitude_deg": -95.91254708467442,
      "height_km": 780.2352161734714,
      "semi_major_axis_km": 7152.472714134958,
      "eccentricity": 0.00123028,
      "inclination_deg": 98.424,
      "raan_deg": 274.7304,
      "arg_perigee_deg": 109.804,
      "mean_anomaly_deg": 250.4474,
      "mean_motion_rev_day": 14.352199
    }
  ]
}